[
  {
    "OBJECT_NAME": "STARLINK-3395",
    "OBJECT_ID": "22005AC",
    "EPOCH": "2025-11-11T04:13:47.237952",
    "MEAN_MOTION": 15.08852378,
    "ECCENTRICITY": 0.0001573,
    "INCLINATION": 53.2146,
    "RA_OF_ASC_NODE": 111.1467,
    "ARG_OF_PERICENTER": 92.2637,
    "MEAN_ANOMALY": 267.8535,
    "EPHEMERIS_TYPE": 0,
    "CLASSIFICATION_TYPE": "U",
    "NORAD_CAT_ID": 51130,
    "ELEMENT_SET_NO": 999,
    "REV_AT_EPOCH": 21083,
    "BSTAR": 0.0,
    "MEAN_MOTION_DOT": -4.454e-05,
    "MEAN_MOTION_DDOT": 0.0,
    "TLE_LINE1": "1 51130U 22005AC  25315.17624118 -.00004454  00000+0 -26185-3 0  9998",
    "TLE_LINE2": "2 51130  53.2146 111.1467 0001573  92.2637 267.8535 15.08852378210836",
    "COMMENT": "Grouped by shell and plane from TLE"
  },
  {
    "OBJECT_NAME": "STARLINK-3388",
    "OBJECT_ID": "22005AD",
    "EPOCH": "2025-11-11T04:03:11.989728",
    "MEAN_MOTION": 15.08838842,
    "ECCENTRICITY": 0.0001454,
    "INCLINATION": 53.2157,
    "RA_OF_ASC_NODE": 111.18,
    "ARG_OF_PERICENTER": 91.4318,
    "MEAN_ANOMALY": 268.684,
    "EPHEMERIS_TYPE": 0,
    "CLASSIFICATION_TYPE": "U",
    "NORAD_CAT_ID": 51131,
    "ELEMENT_SET_NO": 999,
    "REV_AT_EPOCH": 21083,
    "BSTAR": 0.00024028,
    "MEAN_MOTION_DOT": 3.538e-05,
    "MEAN_MOTION_DDOT": 0.0,
    "TLE_LINE1": "1 51131U 22005AD  25315.16888877  .00003538  00000+0  24028-3 0  9996",
    "TLE_LINE2": "2 51131  53.2157 111.1800 0001454  91.4318 268.6840 15.08838842210833",
    "COMMENT": "Grouped by shell and plane from TLE"
  },
  {
    "OBJECT_NAME": "STARLINK-3393",
    "OBJECT_ID": "22005AE",
    "EPOCH": "2025-11-10T20:11:33.097056",
    "MEAN_MOTION": 15.0884461,
    "ECCENTRICITY": 0.0001186,
    "INCLINATION": 53.2157,
    "RA_OF_ASC_NODE": 112.6494,
    "ARG_OF_PERICENTER": 90.4227,
    "MEAN_ANOMALY": 269.6901,
    "EPHEMERIS_TYPE": 0,
    "CLASSIFICATION_TYPE": "U",
    "NORAD_CAT_ID": 51132,
    "ELEMENT_SET_NO": 999,
    "REV_AT_EPOCH": 21078,
    "BSTAR": 9.4709e-05,
    "MEAN_MOTION_DOT": 1.22e-05,
    "MEAN_MOTION_DDOT": 0.0,
    "TLE_LINE1": "1 51132U 22005AE  25314.84135529  .00001220  00000+0  94709-4 0  9990",
    "TLE_LINE2": "2 51132  53.2157 112.6494 0001186  90.4227 269.6901 15.08844610210782",
    "COMMENT": "Grouped by shell and plane from TLE"
  },
  {
    "OBJECT_NAME": "STARLINK-3356",
    "OBJECT_ID": "22005AF",
    "EPOCH": "2025-11-11T03:52:35.135328",
    "MEAN_MOTION": 15.08846686,
    "ECCENTRICITY": 0.0001252,
    "INCLINATION": 53.216,
    "RA_OF_ASC_NODE": 111.2135,
    "ARG_OF_PERICENTER": 89.0821,
    "MEAN_ANOMALY": 271.0315,
    "EPHEMERIS_TYPE": 0,
    "CLASSIFICATION_TYPE": "U",
    "NORAD_CAT_ID": 51133,
    "ELEMENT_SET_NO": 999,
    "REV_AT_EPOCH": 21083,
    "BSTAR": 0.000105,
    "MEAN_MOTION_DOT": 1.384e-05,
    "MEAN_MOTION_DDOT": 0.0,
    "TLE_LINE1": "1 51133U 22005AF  25315.16151777  .00001384  00000+0  10500-3 0  9997",
    "TLE_LINE2": "2 51133  53.2160 111.2135 0001252  89.0821 271.0315 15.08846686210839",
    "COMMENT": "Grouped by shell and plane from TLE"
  },
  {
    "OBJECT_NAME": "STARLINK-3363",
    "OBJECT_ID": "22005AH",
    "EPOCH": "2025-11-11T03:32:46.896000",
    "MEAN_MOTION": 15.08838432,
    "ECCENTRICITY": 0.0001406,
    "INCLINATION": 53.2159,
    "RA_OF_ASC_NODE": 111.1724,
    "ARG_OF_PERICENTER": 87.1003,
    "MEAN_ANOMALY": 273.015,
    "EPHEMERIS_TYPE": 0,
    "CLASSIFICATION_TYPE": "U",
    "NORAD_CAT_ID": 51135,
    "ELEMENT_SET_NO": 999,
    "REV_AT_EPOCH": 21083,
    "BSTAR": 0.00022558000000000002,
    "MEAN_MOTION_DOT": 3.304e-05,
    "MEAN_MOTION_DDOT": 0.0,
    "TLE_LINE1": "1 51135U 22005AH  25315.14776500  .00003304  00000+0  22558-3 0  9994",
    "TLE_LINE2": "2 51135  53.2159 111.1724 0001406  87.1003 273.0150 15.08838432210833",
    "COMMENT": "Grouped by shell and plane from TLE"
  },
  {
    "OBJECT_NAME": "STARLINK-3253",
    "OBJECT_ID": "22005AJ",
    "EPOCH": "2025-11-11T03:20:45.279744",
    "MEAN_MOTION": 15.08855756,
    "ECCENTRICITY": 0.0001098,
    "INCLINATION": 53.2136,
    "RA_OF_ASC_NODE": 111.1093,
    "ARG_OF_PERICENTER": 90.3305,
    "MEAN_ANOMALY": 269.7813,
    "EPHEMERIS_TYPE": 0,
    "CLASSIFICATION_TYPE": "U",
    "NORAD_CAT_ID": 51136,
    "ELEMENT_SET_NO": 999,
    "REV_AT_EPOCH": 21083,
    "BSTAR": 0.00011236,
    "MEAN_MOTION_DOT": 1.502e-05,
    "MEAN_MOTION_DDOT": 0.0,
    "TLE_LINE1": "1 51136U 22005AJ  25315.13941296  .00001502  00000+0  11236-3 0  9999",
    "TLE_LINE2": "2 51136  53.2136 111.1093 0001098  90.3305 269.7813 15.08855756210832",
    "COMMENT": "Grouped by shell and plane from TLE"
  },
  {
    "OBJECT_NAME": "STARLINK-3180",
    "OBJECT_ID": "22005AK",
    "EPOCH": "2025-11-11T03:31:23.455200",
    "MEAN_MOTION": 15.08838028,
    "ECCENTRICITY": 0.0001276,
    "INCLINATION": 53.2149,
    "RA_OF_ASC_NODE": 111.2807,
    "ARG_OF_PERICENTER": 89.1173,
    "MEAN_ANOMALY": 270.9965,
    "EPHEMERIS_TYPE": 0,
    "CLASSIFICATION_TYPE": "U",
    "NORAD_CAT_ID": 51137,
    "ELEMENT_SET_NO": 999,
    "REV_AT_EPOCH": 21084,
    "BSTAR": 2.8677000000000003e-05,
    "MEAN_MOTION_DOT": 1.69e-06,
    "MEAN_MOTION_DDOT": 0.0,
    "TLE_LINE1": "1 51137U 22005AK  25315.14679925  .00000169  00000+0  28677-4 0  9994",
    "TLE_LINE2": "2 51137  53.2149 111.2807 0001276  89.1173 270.9965 15.08838028210844",
    "COMMENT": "Grouped by shell and plane from TLE"
  },
  {
    "OBJECT_NAME": "STARLINK-3177",
    "OBJECT_ID": "22005AL",
    "EPOCH": "2025-11-10T11:48:08.187552",
    "MEAN_MOTION": 15.08838343,
    "ECCENTRICITY": 9.52e-05,
    "INCLINATION": 53.2119,
    "RA_OF_ASC_NODE": 114.2193,
    "ARG_OF_PERICENTER": 37.2129,
    "MEAN_ANOMALY": 322.8929,
    "EPHEMERIS_TYPE": 0,
    "CLASSIFICATION_TYPE": "U",
    "NORAD_CAT_ID": 51138,
    "ELEMENT_SET_NO": 999,
    "REV_AT_EPOCH": 21073,
    "BSTAR": 6.3335e-05,
    "MEAN_MOTION_DOT": 7.2e-06,
    "MEAN_MOTION_DDOT": 0.0,
    "TLE_LINE1": "1 51138U 22005AL  25314.49176143  .00000720  00000+0  63335-4 0  9999",
    "TLE_LINE2": "2 51138  53.2119 114.2193 0000952  37.2129 322.8929 15.08838343210733",
    "COMMENT": "Grouped by shell and plane from TLE"
  },
  {
    "OBJECT_NAME": "STARLINK-3172",
    "OBJECT_ID": "22005AM",
    "EPOCH": "2025-11-11T03:22:10.014816",
    "MEAN_MOTION": 15.08843382,
    "ECCENTRICITY": 9.93e-05,
    "INCLINATION": 53.2128,
    "RA_OF_ASC_NODE": 111.3166,
    "ARG_OF_PERICENTER": 80.0673,
    "MEAN_ANOMALY": 280.0431,
    "EPHEMERIS_TYPE": 0,
    "CLASSIFICATION_TYPE": "U",
    "NORAD_CAT_ID": 51139,
    "ELEMENT_SET_NO": 999,
    "REV_AT_EPOCH": 21084,
    "BSTAR": 3.078e-05,
    "MEAN_MOTION_DOT": 2.02e-06,
    "MEAN_MOTION_DDOT": 0.0,
    "TLE_LINE1": "1 51139U 22005AM  25315.14039369  .00000202  00000+0  30780-4 0  9994",
    "TLE_LINE2": "2 51139  53.2128 111.3166 0000993  80.0673 280.0431 15.08843382210841",
    "COMMENT": "Grouped by shell and plane from TLE"
  },
  {
    "OBJECT_NAME": "STARLINK-3175",
    "OBJECT_ID": "22005AN",
    "EPOCH": "2025-11-10T19:41:09.297600",
    "MEAN_MOTION": 15.08841445,
    "ECCENTRICITY": 0.0001202,
    "INCLINATION": 53.2177,
    "RA_OF_ASC_NODE": 112.7576,
    "ARG_OF_PERICENTER": 91.131,
    "MEAN_ANOMALY": 268.982,
    "EPHEMERIS_TYPE": 0,
    "CLASSIFICATION_TYPE": "U",
    "NORAD_CAT_ID": 51140,
    "ELEMENT_SET_NO": 999,
    "REV_AT_EPOCH": 21079,
    "BSTAR": 0.0,
    "MEAN_MOTION_DOT": -1.998e-05,
    "MEAN_MOTION_DDOT": 0.0,
    "TLE_LINE1": "1 51140U 22005AN  25314.82024650 -.00001998  00000+0 -10747-3 0  9992",
    "TLE_LINE2": "2 51140  53.2177 112.7576 0001202  91.1310 268.9820 15.08841445210791",
    "COMMENT": "Grouped by shell and plane from TLE"
  },
  {
    "OBJECT_NAME": "STARLINK-3179",
    "OBJECT_ID": "22005AP",
    "EPOCH": "2025-11-10T20:48:38.668608",
    "MEAN_MOTION": 15.08847262,
    "ECCENTRICITY": 0.0001182,
    "INCLINATION": 53.217,
    "RA_OF_ASC_NODE": 112.5341,
    "ARG_OF_PERICENTER": 78.314,
    "MEAN_ANOMALY": 281.7984,
    "EPHEMERIS_TYPE": 0,
    "CLASSIFICATION_TYPE": "U",
    "NORAD_CAT_ID": 51141,
    "ELEMENT_SET_NO": 999,
    "REV_AT_EPOCH": 21080,
    "BSTAR": 5.2496e-05,
    "MEAN_MOTION_DOT": 5.48e-06,
    "MEAN_MOTION_DDOT": 0.0,
    "TLE_LINE1": "1 51141U 22005AP  25314.86711422  .00000548  00000+0  52496-4 0  9993",
    "TLE_LINE2": "2 51141  53.2170 112.5341 0001182  78.3140 281.7984 15.08847262210807",
    "COMMENT": "Grouped by shell and plane from TLE"
  },
  {
    "OBJECT_NAME": "STARLINK-3185",
    "OBJECT_ID": "22005AS",
    "EPOCH": "2025-11-10T11:23:01.027680",
    "MEAN_MOTION": 15.08839897,
    "ECCENTRICITY": 0.0001447,
    "INCLINATION": 53.2144,
    "RA_OF_ASC_NODE": 114.3076,
    "ARG_OF_PERICENTER": 88.3125,
    "MEAN_ANOMALY": 271.8033,
    "EPHEMERIS_TYPE": 0,
    "CLASSIFICATION_TYPE": "U",
    "NORAD_CAT_ID": 51144,
    "ELEMENT_SET_NO": 999,
    "REV_AT_EPOCH": 21074,
    "BSTAR": 4.1752e-05,
    "MEAN_MOTION_DOT": 3.77e-06,
    "MEAN_MOTION_DDOT": 0.0,
    "TLE_LINE1": "1 51144U 22005AS  25314.47431745  .00000377  00000+0  41752-4 0  9993",
    "TLE_LINE2": "2 51144  53.2144 114.3076 0001447  88.3125 271.8033 15.08839897210747",
    "COMMENT": "Grouped by shell and plane from TLE"
  },
  {
    "OBJECT_NAME": "STARLINK-3354",
    "OBJECT_ID": "22005AU",
    "EPOCH": "2025-11-11T03:27:29.863296",
    "MEAN_MOTION": 15.08828259,
    "ECCENTRICITY": 0.0001373,
    "INCLINATION": 53.216,
    "RA_OF_ASC_NODE": 111.303,
    "ARG_OF_PERICENTER": 97.5098,
    "MEAN_ANOMALY": 262.605,
    "EPHEMERIS_TYPE": 0,
    "CLASSIFICATION_TYPE": "U",
    "NORAD_CAT_ID": 51146,
    "ELEMENT_SET_NO": 999,
    "REV_AT_EPOCH": 21083,
    "BSTAR": 8.0194e-05,
    "MEAN_MOTION_DOT": 9.88e-06,
    "MEAN_MOTION_DDOT": 0.0,
    "TLE_LINE1": "1 51146U 22005AU  25315.14409564  .00000988  00000+0  80194-4 0  9995",
    "TLE_LINE2": "2 51146  53.2160 111.3030 0001373  97.5098 262.6050 15.08828259210830",
    "COMMENT": "Grouped by shell and plane from TLE"
  }
]